[Satellite]
VERSION=1.1
NAME=BRITE-PL
NICKNAME=BRITE-PL
TLE1=1 39431U 13066R   18020.47463661 -.00000002  00000-0  95608-5 0  9990
TLE2=2 39431  97.7378 344.3060 0202909 162.9340 197.8812 14.46902423219878
